COMMENT,ORIGINATOR,NORAD_CAT_ID,OBJECT_NAME,OBJECT_TYPE,CLASSIFICATION_TYPE,INTLDES,EPOCH,EPOCH_MICROSECONDS,MEAN_MOTION,ECCENTRICITY,INCLINATION,RA_OF_ASC_NODE,ARG_OF_PERICENTER,MEAN_ANOMALY,EPHEMERIS_TYPE,ELEMENT_SET_NO,REV_AT_EPOCH,BSTAR,MEAN_MOTION_DOT,MEAN_MOTION_DDOT,FILE,TLE_LINE0,TLE_LINE1,TLE_LINE2,OBJECT_ID,OBJECT_NUMBER,SEMIMAJOR_AXIS,PERIOD,APOGEE,PERIGEE,DECAYED
GENERATED VIA SPACETRACK.ORG API,18 SPCS,52365,STARLINK-3874,PAYLOAD,U,22045AL,2022-08-08 22:00:00,999936,15.07256487,0.000173,53.2116,304.2566,43.083,199.7221,0,999,1833,-0.0047751,-0.00072338,0,3532305,0 STARLINK-3874,1 52365U 22045AL  22220.91667824 -.00072338  00000-0 -47751-2 0  9996,2 52365  53.2116 304.2566 0001730  43.0830 199.7221 15.07256487 18337,2022-045AL,52365,6922.725,95.538,545.787,543.392,0
GENERATED VIA SPACETRACK.ORG API,18 SPCS,52365,STARLINK-3874,PAYLOAD,U,22045AL,2022-08-09 14:00:01,224,15.07189179,0.0001849,53.2119,301.2724,42.9153,219.183,0,999,1843,-0.0013677,-0.00021033,0,3532826,0 STARLINK-3874,1 52365U 22045AL  22221.58334491 -.00021033  00000-0 -13677-2 0  9997,2 52365  53.2119 301.2724 0001849  42.9153 219.1830 15.07189179 18437,2022-045AL,52365,6922.931,95.542,546.076,543.516,0
GENERATED VIA SPACETRACK.ORG API,18 SPCS,52365,STARLINK-3874,PAYLOAD,U,22045AL,2022-08-09 14:00:01,224,15.07189179,0.0001849,53.2119,301.2724,42.9153,219.183,0,999,130,-0.0013677,-0.00021033,0,3532882,0 STARLINK-3874,1 52365U 22045AL  22221.58334491 -.00021033  00000-0 -13677-2 0  9997,2 52365  53.2119 301.2724 0001849  42.9153 219.1830 15.07189179  1305,2022-045AL,52365,6922.931,95.542,546.076,543.516,0
GENERATED VIA SPACETRACK.ORG API,18 SPCS,52365,STARLINK-3874,PAYLOAD,U,22045AL,2022-08-09 22:00:00,999936,15.07180168,0.0001769,53.2122,299.7785,44.4932,227.2162,0,999,130,-0.0017772,-0.00027215,0,3533123,0 STARLINK-3874,1 52365U 22045AL  22221.91667824 -.00027215  00000-0 -17772-2 0  9991,2 52365  53.2122 299.7785 0001769  44.4932 227.2162 15.07180168  1307,2022-045AL,52365,6922.958,95.543,546.048,543.599,0
GENERATED VIA SPACETRACK.ORG API,18 SPCS,52365,STARLINK-3874,PAYLOAD,U,22045AL,2022-08-10 14:00:01,224,15.07151573,0.0001901,53.213,296.7947,42.8807,248.0106,0,999,130,0.0050721,0.00077664,0,3533800,0 STARLINK-3874,1 52365U 22045AL  22222.58334491  .00077664  00000-0  50721-2 0  9998,2 52365  53.2130 296.7947 0001901  42.8807 248.0106 15.07151573  1301,2022-045AL,52365,6923.046,95.544,546.227,543.595,0
GENERATED VIA SPACETRACK.ORG API,18 SPCS,52365,STARLINK-3874,PAYLOAD,U,22045AL,2022-08-10 17:07:18,999840,15.07182029,0.000185,53.2126,296.2121,40.2305,236.7744,0,999,1860,0.0032972,0.00050233,0,3533758,0 STARLINK-3874,1 52365U 22045AL  22222.71341435  .00050233  00000-0  32972-2 0  9990,2 52365  53.2126 296.2121 0001850  40.2305 236.7744 15.07182029 18606,2022-045AL,52365,6922.953,95.543,546.099,543.537,0
GENERATED VIA SPACETRACK.ORG API,18 SPCS,52365,STARLINK-3874,PAYLOAD,U,22045AL,2022-08-10 22:00:00,999936,15.07219426,0.0001741,53.2128,295.3007,42.2362,258.2567,0,999,130,-0.0012782,-0.00019695,0,3533963,0 STARLINK-3874,1 52365U 22045AL  22222.91667824 -.00019695  00000-0 -12782-2 0  9991,2 52365  53.2128 295.3007 0001741  42.2362 258.2567 15.07219426  1308,2022-045AL,52365,6922.838,95.54,545.909,543.498,0
GENERATED VIA SPACETRACK.ORG API,18 SPCS,52365,STARLINK-3874,PAYLOAD,U,22045AL,2022-08-11 06:00:02,160,15.07192885,0.0001812,53.2128,293.8077,49.6468,260.4964,0,999,1868,-3.7036e-06,-3.4e-06,0,3534244,0 STARLINK-3874,1 52365U 22045AL  22223.25002315 -.00000340  00000-0 -37036-5 0  9996,2 52365  53.2128 293.8077 0001812  49.6468 260.4964 15.07192885 18689,2022-045AL,52365,6922.92,95.542,546.039,543.53,0
GENERATED VIA SPACETRACK.ORG API,18 SPCS,52365,STARLINK-3874,PAYLOAD,U,22045AL,2022-08-11 14:00:01,224,15.0717326,0.0002025,53.2127,292.3168,44.0249,275.6779,0,999,130,0.0023779,0.00036067,0,3534319,0 STARLINK-3874,1 52365U 22045AL  22223.58334491  .00036067  00000-0  23779-2 0  9994,2 52365  53.2127 292.3168 0002025  44.0249 275.6779 15.07173260  1305,2022-045AL,52365,6922.98,95.543,546.247,543.443,0
GENERATED VIA SPACETRACK.ORG API,18 SPCS,52365,STARLINK-3874,PAYLOAD,U,22045AL,2022-08-12 14:00:01,224,15.07194266,0.0002104,53.2126,287.8387,43.8842,304.6997,0,999,1888,0.0028829,0.00043861,0,3535313,0 STARLINK-3874,1 52365U 22045AL  22224.58334491  .00043861  00000-0  28829-2 0  9996,2 52365  53.2126 287.8387 0002104  43.8842 304.6997 15.07194266 18885,2022-045AL,52365,6922.915,95.542,546.237,543.324,0
GENERATED VIA SPACETRACK.ORG API,18 SPCS,52365,STARLINK-3874,PAYLOAD,U,22045AL,2022-08-12 14:00:01,224,15.07194266,0.0002104,53.2126,287.8387,43.8842,304.6997,0,999,130,0.0028829,0.00043861,0,3535350,0 STARLINK-3874,1 52365U 22045AL  22224.58334491  .00043861  00000-0  28829-2 0  9996,2 52365  53.2126 287.8387 0002104  43.8842 304.6997 15.07194266  1304,2022-045AL,52365,6922.915,95.542,546.237,543.324,0
GENERATED VIA SPACETRACK.ORG API,18 SPCS,52365,STARLINK-3874,PAYLOAD,U,22045AL,2022-08-12 22:00:01,999584,15.07221795,0.0001959,53.2126,286.3444,46.1245,312.1596,0,999,130,-0.00024498,-4.012e-05,0,3535519,0 STARLINK-3874,1 52365U 22045AL  22224.91668981 -.00004012  00000-0 -24498-3 0  9993,2 52365  53.2126 286.3444 0001959  46.1245 312.1596 15.07221795  1309,2022-045AL,52365,6922.831,95.54,546.052,543.34,0
GENERATED VIA SPACETRACK.ORG API,18 SPCS,52365,STARLINK-3874,PAYLOAD,U,22045AL,2022-08-13 06:00:02,160,15.07247155,0.0001924,53.2127,284.8516,47.8354,320.0884,0,999,1899,-0.0024713,-0.00037747,0,3535782,0 STARLINK-3874,1 52365U 22045AL  22225.25002315 -.00037747  00000-0 -24713-2 0  9994,2 52365  53.2127 284.8516 0001924  47.8354 320.0884 15.07247155 18993,2022-045AL,52365,6922.753,95.538,545.95,543.286,0
GENERATED VIA SPACETRACK.ORG API,18 SPCS,52365,STARLINK-3874,PAYLOAD,U,22045AL,2022-08-13 14:00:01,224,15.07187488,0.0002063,53.2125,283.3603,42.0081,335.5235,0,999,130,0.0020933,0.00031709,0,3535824,0 STARLINK-3874,1 52365U 22045AL  22225.58334491  .00031709  00000-0  20933-2 0  9993,2 52365  53.2125 283.3603 0002063  42.0081 335.5235 15.07187488  1301,2022-045AL,52365,6922.936,95.542,546.229,543.373,0
GENERATED VIA SPACETRACK.ORG API,18 SPCS,52365,STARLINK-3874,PAYLOAD,U,22045AL,2022-08-13 22:00:00,999936,15.0720269,0.0001889,53.2124,281.8659,44.6704,342.4887,0,999,130,0.00015062,2.01e-05,0,3535825,0 STARLINK-3874,1 52365U 22045AL  22225.91667824  .00002010  00000-0  15062-3 0  9990,2 52365  53.2124 281.8659 0001889  44.6704 342.4887 15.07202690  1302,2022-045AL,52365,6922.89,95.541,546.062,543.447,0
GENERATED VIA SPACETRACK.ORG API,18 SPCS,52365,STARLINK-3874,PAYLOAD,U,22045AL,2022-08-14 06:00:02,160,15.07222239,0.0001894,53.2142,280.3697,48.5725,348.2764,0,999,1914,-0.00057227,-8.988e-05,0,3536039,0 STARLINK-3874,1 52365U 22045AL  22226.25002315 -.00008988  00000-0 -57227-3 0  9997,2 52365  53.2142 280.3697 0001894  48.5725 348.2764 15.07222239 19140,2022-045AL,52365,6922.83,95.54,546.006,543.383,0
GENERATED VIA SPACETRACK.ORG API,18 SPCS,52365,STARLINK-3874,PAYLOAD,U,22045AL,2022-08-14 14:00:01,224,15.07194135,0.0002053,53.2122,278.8818,41.8391,4.5997,0,999,130,0.0029287,0.00044566,0,3536350,0 STARLINK-3874,1 52365U 22045AL  22226.58334491  .00044566  00000-0  29287-2 0  9990,2 52365  53.2122 278.8818 0002053  41.8391   4.5997 15.07194135  1300,2022-045AL,52365,6922.916,95.542,546.202,543.359,0
GENERATED VIA SPACETRACK.ORG API,18 SPCS,52365,STARLINK-3874,PAYLOAD,U,22045AL,2022-08-14 22:00:00,999936,15.07218985,0.0001895,53.2121,277.3873,46.2142,9.8663,0,999,130,-0.00057453,-9.022e-05,0,3536615,0 STARLINK-3874,1 52365U 22045AL  22226.91667824 -.00009022  00000-0 -57453-3 0  9993,2 52365  53.2121 277.3873 0001895  46.2142   9.8663 15.07218985  1308,2022-045AL,52365,6922.84,95.54,546.017,543.393,0
GENERATED VIA SPACETRACK.ORG API,18 SPCS,52365,STARLINK-3874,PAYLOAD,U,22045AL,2022-08-15 14:00:01,224,15.07176616,0.0002131,53.2117,274.4033,44.872,30.4884,0,999,130,0.0028695,0.00043633,0,3537056,0 STARLINK-3874,1 52365U 22045AL  22227.58334491  .00043633  00000-0  28695-2 0  9997,2 52365  53.2117 274.4033 0002131  44.8720  30.4884 15.07176616  1308,2022-045AL,52365,6922.969,95.543,546.31,543.359,0
GENERATED VIA SPACETRACK.ORG API,18 SPCS,52365,STARLINK-3874,PAYLOAD,U,22045AL,2022-08-15 16:00:00,999936,15.0719637,0.0002133,53.2119,274.0297,44.7439,123.0146,0,999,1935,0.00065327,9.672e-05,0,3537070,0 STARLINK-3874,1 52365U 22045AL  22227.66667824  .00009672  00000-0  65327-3 0  9994,2 52365  53.2119 274.0297 0002133  44.7439 123.0146 15.07196370 19359,2022-045AL,52365,6922.909,95.542,546.251,543.297,0
GENERATED VIA SPACETRACK.ORG API,18 SPCS,52365,STARLINK-3874,PAYLOAD,U,22045AL,2022-08-15 22:00:00,999936,15.07187804,0.0001959,53.2124,272.9087,49.5421,35.439,0,999,130,0.0011671,0.00017518,0,3537378,0 STARLINK-3874,1 52365U 22045AL  22227.91667824  .00017518  00000-0  11671-2 0  9992,2 52365  53.2124 272.9087 0001959  49.5421  35.4390 15.07187804  1303,2022-045AL,52365,6922.935,95.542,546.156,543.444,0
GENERATED VIA SPACETRACK.ORG API,18 SPCS,52365,STARLINK-3874,PAYLOAD,U,22045AL,2022-08-16 14:00:01,224,15.07185578,0.0002158,53.2133,269.9249,45.6957,58.5429,0,999,130,0.0028149,0.00042803,0,3537973,0 STARLINK-3874,1 52365U 22045AL  22228.58334491  .00042803  00000-0  28149-2 0  9990,2 52365  53.2133 269.9249 0002158  45.6957  58.5429 15.07185578  1307,2022-045AL,52365,6922.942,95.542,546.301,543.313,0
GENERATED VIA SPACETRACK.ORG API,18 SPCS,52365,STARLINK-3874,PAYLOAD,U,22045AL,2022-08-16 22:00:00,999936,15.0719599,0.0001994,53.2133,268.4303,50.4863,63.3893,0,999,1954,0.0017145,0.00025904,0,3538145,0 STARLINK-3874,1 52365U 22045AL  22228.91667824  .00025904  00000-0  17145-2 0  9993,2 52365  53.2133 268.4303 0001994  50.4863  63.3893 15.07195990 19542,2022-045AL,52365,6922.91,95.542,546.155,543.395,0
